COSMOS 1933             
1 18958U 88020A   26024.68462327  .00007080  00000+0  35105-3 0  9992
2 18958  82.5140 294.4400 0004680  17.4038 342.7355 15.17570044 43557
SL-3 R/B                
1 19046U 88032B   26024.87780279  .00008950  00000+0  42309-3 0  9995
2 19046  97.5134   8.3267 0027390  30.5284 329.7538 15.19292792 45452
SL-16 R/B               
1 19120U 88039B   26024.80012340 -.00000043  00000+0  25862-5 0  9998
2 19120  71.0145 161.3516 0020194  42.8978 317.3718 14.19608696952152
COSMOS 1953             
1 19210U 88050A   26024.75120248  .00011639  00000+0  42973-3 0  9994
2 19210  82.5076 202.4016 0010417 280.6133  79.3933 15.27578337 31077
SL-8 R/B                
1 19257U 88053B   26024.70679199  .00000396  00000+0  13686-3 0  9994
2 19257  74.0459 193.5287 0019733  22.3123 349.1299 14.38887010970278
COSMOS 1975             
1 19573U 88093A   26024.83907280  .00011951  00000+0  44607-3 0  9994
2 19573  82.5217 161.6603 0010886 329.6513  30.4094 15.27216017 12710
SL-14 R/B               
1 19574U 88093B   26024.63403579  .00000762  00000+0  84944-4 0  9992
2 19574  82.5296  83.4118 0020711 179.7062 352.3385 14.85605549994499
SL-16 R/B               
1 19650U 88102B   26024.61673189 -.00000062  00000+0 -69746-5 0  9991
2 19650  70.9976 244.2281 0011930  75.4459 284.7987 14.16148179920651
INTERCOSMOS 24          
1 20261U 89080A   26024.72007565  .00000720  00000+0  20526-3 0  9998
2 20261  82.6079 133.0142 1188789  34.8761 332.4662 12.59499387661264
SL-14 R/B               
1 20262U 89080C   26024.86728760  .00000407  00000+0  12361-3 0  9991
2 20262  82.5922 201.3235 1229525 284.9878  61.8550 12.50445379654673
DELTA 1 R/B             
1 20323U 89089B   26024.88935540  .00000781  00000+0  20236-3 0  9991
2 20323  97.0733 239.2850 0067554 261.0064  98.3484 14.50620401889381
ARIANE 40 R/B           
1 20443U 90005H   26024.61675895  .00000568  00000+0  19447-3 0  9994
2 20443  98.3177  86.5704 0009592 343.9827  16.1057 14.39837310886462
