CCSDS_OMM_VERS = 2.0
CREATION_DATE  = 
ORIGINATOR     = 

OBJECT_NAME    = COSMOS 1933
OBJECT_ID      = 1988-020A
CENTER_NAME    = EARTH
REF_FRAME      = TEME
TIME_SYSTEM    = UTC
MEAN_ELEMENT_THEORY = SGP/SGP4

EPOCH          = 2026-01-24T16:25:51.450528
MEAN_MOTION    = 15.17570044
ECCENTRICITY   = .00046808
INCLINATION    = 82.5140
RA_OF_ASC_NODE = 294.4400
ARG_OF_PERICENTER = 17.4038
MEAN_ANOMALY   = 342.7355

EPHEMERIS_TYPE = 0
CLASSIFICATION_TYPE = U
NORAD_CAT_ID   = 18958
ELEMENT_SET_NO = 999
REV_AT_EPOCH   = 4355
BSTAR          = .35105482E-3
MEAN_MOTION_DOT = .708E-4
MEAN_MOTION_DDOT = 0

CCSDS_OMM_VERS = 2.0
CREATION_DATE  = 
ORIGINATOR     = 

OBJECT_NAME    = SL-3 R/B
OBJECT_ID      = 1988-032B
CENTER_NAME    = EARTH
REF_FRAME      = TEME
TIME_SYSTEM    = UTC
MEAN_ELEMENT_THEORY = SGP/SGP4

EPOCH          = 2026-01-24T21:04:02.161056
MEAN_MOTION    = 15.19292792
ECCENTRICITY   = .002739
INCLINATION    = 97.5134
RA_OF_ASC_NODE = 8.3267
ARG_OF_PERICENTER = 30.5284
MEAN_ANOMALY   = 329.7538

EPHEMERIS_TYPE = 0
CLASSIFICATION_TYPE = U
NORAD_CAT_ID   = 19046
ELEMENT_SET_NO = 999
REV_AT_EPOCH   = 4545
BSTAR          = .42309436E-3
MEAN_MOTION_DOT = .895E-4
MEAN_MOTION_DDOT = 0

CCSDS_OMM_VERS = 2.0
CREATION_DATE  = 
ORIGINATOR     = 

OBJECT_NAME    = SL-16 R/B
OBJECT_ID      = 1988-039B
CENTER_NAME    = EARTH
REF_FRAME      = TEME
TIME_SYSTEM    = UTC
MEAN_ELEMENT_THEORY = SGP/SGP4

EPOCH          = 2026-01-24T19:12:10.661760
MEAN_MOTION    = 14.19608696
ECCENTRICITY   = .00201946
INCLINATION    = 71.0145
RA_OF_ASC_NODE = 161.3516
ARG_OF_PERICENTER = 42.8978
MEAN_ANOMALY   = 317.3718

EPHEMERIS_TYPE = 0
CLASSIFICATION_TYPE = U
NORAD_CAT_ID   = 19120
ELEMENT_SET_NO = 999
REV_AT_EPOCH   = 95215
BSTAR          = .2586244E-5
MEAN_MOTION_DOT = -.43E-6
MEAN_MOTION_DDOT = 0

CCSDS_OMM_VERS = 2.0
CREATION_DATE  = 
ORIGINATOR     = 

OBJECT_NAME    = COSMOS 1953
OBJECT_ID      = 1988-050A
CENTER_NAME    = EARTH
REF_FRAME      = TEME
TIME_SYSTEM    = UTC
MEAN_ELEMENT_THEORY = SGP/SGP4

EPOCH          = 2026-01-24T18:01:43.894272
MEAN_MOTION    = 15.27578337
ECCENTRICITY   = .00104175
INCLINATION    = 82.5076
RA_OF_ASC_NODE = 202.4016
ARG_OF_PERICENTER = 280.6133
MEAN_ANOMALY   = 79.3933

EPHEMERIS_TYPE = 0
CLASSIFICATION_TYPE = U
NORAD_CAT_ID   = 19210
ELEMENT_SET_NO = 999
REV_AT_EPOCH   = 3107
BSTAR          = .42973043E-3
MEAN_MOTION_DOT = .11639E-3
MEAN_MOTION_DDOT = 0

CCSDS_OMM_VERS = 2.0
CREATION_DATE  = 
ORIGINATOR     = 

OBJECT_NAME    = SL-8 R/B
OBJECT_ID      = 1988-053B
CENTER_NAME    = EARTH
REF_FRAME      = TEME
TIME_SYSTEM    = UTC
MEAN_ELEMENT_THEORY = SGP/SGP4

EPOCH          = 2026-01-24T16:57:46.827936
MEAN_MOTION    = 14.38887010
ECCENTRICITY   = .00197339
INCLINATION    = 74.0459
RA_OF_ASC_NODE = 193.5287
ARG_OF_PERICENTER = 22.3123
MEAN_ANOMALY   = 349.1299

EPHEMERIS_TYPE = 0
CLASSIFICATION_TYPE = U
NORAD_CAT_ID   = 19257
ELEMENT_SET_NO = 999
REV_AT_EPOCH   = 97027
BSTAR          = .13685953E-3
MEAN_MOTION_DOT = .396E-5
MEAN_MOTION_DDOT = 0

CCSDS_OMM_VERS = 2.0
CREATION_DATE  = 
ORIGINATOR     = 

OBJECT_NAME    = COSMOS 1975
OBJECT_ID      = 1988-093A
CENTER_NAME    = EARTH
REF_FRAME      = TEME
TIME_SYSTEM    = UTC
MEAN_ELEMENT_THEORY = SGP/SGP4

EPOCH          = 2026-01-24T20:08:15.889920
MEAN_MOTION    = 15.27216017
ECCENTRICITY   = .00108867
INCLINATION    = 82.5217
RA_OF_ASC_NODE = 161.6603
ARG_OF_PERICENTER = 329.6513
MEAN_ANOMALY   = 30.4094

EPHEMERIS_TYPE = 0
CLASSIFICATION_TYPE = U
NORAD_CAT_ID   = 19573
ELEMENT_SET_NO = 999
REV_AT_EPOCH   = 1271
BSTAR          = .44607104E-3
MEAN_MOTION_DOT = .11951E-3
MEAN_MOTION_DDOT = 0

CCSDS_OMM_VERS = 2.0
CREATION_DATE  = 
ORIGINATOR     = 

OBJECT_NAME    = SL-14 R/B
OBJECT_ID      = 1988-093B
CENTER_NAME    = EARTH
REF_FRAME      = TEME
TIME_SYSTEM    = UTC
MEAN_ELEMENT_THEORY = SGP/SGP4

EPOCH          = 2026-01-24T15:13:00.692256
MEAN_MOTION    = 14.85605549
ECCENTRICITY   = .00207112
INCLINATION    = 82.5296
RA_OF_ASC_NODE = 83.4118
ARG_OF_PERICENTER = 179.7062
MEAN_ANOMALY   = 352.3385

EPHEMERIS_TYPE = 0
CLASSIFICATION_TYPE = U
NORAD_CAT_ID   = 19574
ELEMENT_SET_NO = 999
REV_AT_EPOCH   = 99449
BSTAR          = .84943656E-4
MEAN_MOTION_DOT = .762E-5
MEAN_MOTION_DDOT = 0

CCSDS_OMM_VERS = 2.0
CREATION_DATE  = 
ORIGINATOR     = 

OBJECT_NAME    = SL-16 R/B
OBJECT_ID      = 1988-102B
CENTER_NAME    = EARTH
REF_FRAME      = TEME
TIME_SYSTEM    = UTC
MEAN_ELEMENT_THEORY = SGP/SGP4

EPOCH          = 2026-01-24T14:48:05.635296
MEAN_MOTION    = 14.16148179
ECCENTRICITY   = .00119303
INCLINATION    = 70.9976
RA_OF_ASC_NODE = 244.2281
ARG_OF_PERICENTER = 75.4459
MEAN_ANOMALY   = 284.7987

EPHEMERIS_TYPE = 0
CLASSIFICATION_TYPE = U
NORAD_CAT_ID   = 19650
ELEMENT_SET_NO = 999
REV_AT_EPOCH   = 92065
BSTAR          = -.697462E-5
MEAN_MOTION_DOT = -.62E-6
MEAN_MOTION_DDOT = 0

CCSDS_OMM_VERS = 2.0
CREATION_DATE  = 
ORIGINATOR     = 

OBJECT_NAME    = INTERCOSMOS 24
OBJECT_ID      = 1989-080A
CENTER_NAME    = EARTH
REF_FRAME      = TEME
TIME_SYSTEM    = UTC
MEAN_ELEMENT_THEORY = SGP/SGP4

EPOCH          = 2026-01-24T17:16:54.536160
MEAN_MOTION    = 12.59499387
ECCENTRICITY   = .11887897
INCLINATION    = 82.6079
RA_OF_ASC_NODE = 133.0142
ARG_OF_PERICENTER = 34.8761
MEAN_ANOMALY   = 332.4662

EPHEMERIS_TYPE = 0
CLASSIFICATION_TYPE = U
NORAD_CAT_ID   = 20261
ELEMENT_SET_NO = 999
REV_AT_EPOCH   = 66126
BSTAR          = .20525856E-3
MEAN_MOTION_DOT = .72E-5
MEAN_MOTION_DDOT = 0

CCSDS_OMM_VERS = 2.0
CREATION_DATE  = 
ORIGINATOR     = 

OBJECT_NAME    = SL-14 R/B
OBJECT_ID      = 1989-080C
CENTER_NAME    = EARTH
REF_FRAME      = TEME
TIME_SYSTEM    = UTC
MEAN_ELEMENT_THEORY = SGP/SGP4

EPOCH          = 2026-01-24T20:48:53.648640
MEAN_MOTION    = 12.50445379
ECCENTRICITY   = .12295253
INCLINATION    = 82.5922
RA_OF_ASC_NODE = 201.3235
ARG_OF_PERICENTER = 284.9878
MEAN_ANOMALY   = 61.8550

EPHEMERIS_TYPE = 0
CLASSIFICATION_TYPE = U
NORAD_CAT_ID   = 20262
ELEMENT_SET_NO = 999
REV_AT_EPOCH   = 65467
BSTAR          = .12361183E-3
MEAN_MOTION_DOT = .407E-5
MEAN_MOTION_DDOT = 0

CCSDS_OMM_VERS = 2.0
CREATION_DATE  = 
ORIGINATOR     = 

OBJECT_NAME    = DELTA 1 R/B
OBJECT_ID      = 1989-089B
CENTER_NAME    = EARTH
REF_FRAME      = TEME
TIME_SYSTEM    = UTC
MEAN_ELEMENT_THEORY = SGP/SGP4

EPOCH          = 2026-01-24T21:20:40.306560
MEAN_MOTION    = 14.50620401
ECCENTRICITY   = .00675541
INCLINATION    = 97.0733
RA_OF_ASC_NODE = 239.2850
ARG_OF_PERICENTER = 261.0064
MEAN_ANOMALY   = 98.3484

EPHEMERIS_TYPE = 0
CLASSIFICATION_TYPE = U
NORAD_CAT_ID   = 20323
ELEMENT_SET_NO = 999
REV_AT_EPOCH   = 88938
BSTAR          = .2023607E-3
MEAN_MOTION_DOT = .781E-5
MEAN_MOTION_DDOT = 0

CCSDS_OMM_VERS = 2.0
CREATION_DATE  = 
ORIGINATOR     = 

OBJECT_NAME    = ARIANE 40 R/B
OBJECT_ID      = 1990-005H
CENTER_NAME    = EARTH
REF_FRAME      = TEME
TIME_SYSTEM    = UTC
MEAN_ELEMENT_THEORY = SGP/SGP4

EPOCH          = 2026-01-24T14:48:07.973280
MEAN_MOTION    = 14.39837310
ECCENTRICITY   = .00095925
INCLINATION    = 98.3177
RA_OF_ASC_NODE = 86.5704
ARG_OF_PERICENTER = 343.9827
MEAN_ANOMALY   = 16.1057

EPHEMERIS_TYPE = 0
CLASSIFICATION_TYPE = U
NORAD_CAT_ID   = 20443
ELEMENT_SET_NO = 999
REV_AT_EPOCH   = 88646
BSTAR          = .19447171E-3
MEAN_MOTION_DOT = .568E-5
MEAN_MOTION_DDOT = 0

